$$SOE
2461288.500000000, A.D. 2026-Sep-05 00:00:00.0000, 2.481747172535547E+08, -2.305901946472535E+08, 1.009387801127851E+06,
2461295.500000000, A.D. 2026-Sep-12 00:00:00.0000, 2.549515480905941E+08, -2.207697619673216E+08, 1.224751068507344E+06,
2461302.500000000, A.D. 2026-Sep-19 00:00:00.0000, 2.614057542714709E+08, -2.106700126225948E+08, 1.438563590039447E+06,
2461309.500000000, A.D. 2026-Sep-26 00:00:00.0000, 2.675246499500321E+08, -2.003000892765851E+08, 1.650530024649233E+06,
2461316.500000000, A.D. 2026-Oct-03 00:00:00.0000, 2.732956544966903E+08, -1.896697543626737E+08, 1.860349342490509E+06,
2461323.500000000, A.D. 2026-Oct-10 00:00:00.0000, 2.787063222240629E+08, -1.787894058983570E+08, 2.067715089717165E+06,
2461330.500000000, A.D. 2026-Oct-17 00:00:00.0000, 2.837443744164339E+08, -1.676700923551659E+08, 2.272315695750654E+06,
2461337.500000000, A.D. 2026-Oct-24 00:00:00.0000, 2.883977337389114E+08, -1.563235263876400E+08, 2.473834823327273E+06,
2461344.500000000, A.D. 2026-Oct-31 00:00:00.0000, 2.926545611533949E+08, -1.447620972469413E+08, 2.671951750377178E+06,
2461351.500000000, A.D. 2026-Nov-07 00:00:00.0000, 2.965032956861572E+08, -1.329988815390312E+08, 2.866341761493526E+06,
2461358.500000000, A.D. 2026-Nov-14 00:00:00.0000, 2.999326972367756E+08, -1.210476511535116E+08, 3.056676606388673E+06,
2461365.500000000, A.D. 2026-Nov-21 00:00:00.0000, 3.029318905857252E+08, -1.089228773854473E+08, 3.242625251238979E+06,
2461372.500000000, A.D. 2026-Nov-28 00:00:00.0000, 3.054904095355358E+08, -9.663973395197494E+07, 3.423854771507859E+06,
2461379.500000000, A.D. 2026-Dec-05 00:00:00.0000, 3.075982446975011E+08, -8.421409923579924E+07, 3.600031002294883E+06,
2461386.500000000, A.D. 2026-Dec-12 00:00:00.0000, 3.092458949478925E+08, -7.166255430945179E+07, 3.770819187108766E+06,
2461393.500000000, A.D. 2026-Dec-19 00:00:00.0000, 3.104244204882547E+08, -5.900237639685673E+07, 3.935884800360620E+06,
2461400.500000000, A.D. 2026-Dec-26 00:00:00.0000, 3.111254971443695E+08, -4.625152830413862E+07, 4.094894486620052E+06,
2461407.500000000, A.D. 2027-Jan-02 00:00:00.0000, 3.113414719084168E+08, -3.342864367917172E+07, 4.247517075752722E+06,
2461414.500000000, A.D. 2027-Jan-09 00:00:00.0000, 3.110654195199146E+08, -2.055300775882697E+07, 4.393424663967177E+06,
2461421.500000000, A.D. 2027-Jan-16 00:00:00.0000, 3.102911997482213E+08, -7.644533291581363E+06, 4.532293756408619E+06,
2461428.500000000, A.D. 2027-Jan-23 00:00:00.0000, 3.090135149987469E+08, 5.276268603094702E+06, 4.663806460973233E+06,
2461435.500000000, A.D. 2027-Jan-30 00:00:00.0000, 3.072279679546970E+08, 1.818832283385725E+07, 4.787651707894955E+06,
2461442.500000000, A.D. 2027-Feb-06 00:00:00.0000, 3.049311191462545E+08, 3.107003053516478E+07, 4.903526477432074E+06,
2461449.500000000, A.D. 2027-Feb-13 00:00:00.0000, 3.021205434022810E+08, 4.389931644055233E+07, 5.011137170204848E+06,
2461456.500000000, A.D. 2027-Feb-20 00:00:00.0000, 2.987948822094492E+08, 5.665368274190250E+07, 5.110201265819315E+06,
2461463.500000000, A.D. 2027-Feb-27 00:00:00.0000, 2.949538927294253E+08, 6.931026624149041E+07, 5.200448869869404E+06,
2461470.500000000, A.D. 2027-Mar-06 00:00:00.0000, 2.905984957997075E+08, 8.184590066332614E+07, 5.281624017334584E+06,
2461477.500000000, A.D. 2027-Mar-13 00:00:00.0000, 2.857308206049538E+08, 9.423718604002114E+07, 5.353486034073044E+06,
2461484.500000000, A.D. 2027-Mar-20 00:00:00.0000, 2.803542441725384E+08, 1.064605641163299E+08, 5.415810978586152E+06,
2461491.500000000, A.D. 2027-Mar-27 00:00:00.0000, 2.744734251804093E+08, 1.184923988987846E+08, 5.468393086269483E+06,
2461498.500000000, A.D. 2027-Apr-03 00:00:00.0000, 2.680943315813308E+08, 1.303090618823553E+08, 5.511046178243399E+06,
2461505.500000000, A.D. 2027-Apr-10 00:00:00.0000, 2.612242614362249E+08, 1.418870214553692E+08, 5.543605014941067E+06,
2461512.500000000, A.D. 2027-Apr-17 00:00:00.0000, 2.538718563564001E+08, 1.532029358475119E+08, 5.565926574782714E+06,
2461519.500000000, A.D. 2027-Apr-24 00:00:00.0000, 2.460471070745480E+08, 1.642337488433282E+08, 5.577891229096510E+06,
2461526.500000000, A.D. 2027-May-01 00:00:00.0000, 2.377613509658355E+08, 1.749567874856350E+08, 5.579403771776423E+06,
2461533.500000000, A.D. 2027-May-08 00:00:00.0000, 2.290272614428610E+08, 1.853498616290144E+08, 5.570394319902539E+06,
2461540.500000000, A.D. 2027-May-15 00:00:00.0000, 2.198588274371249E+08, 1.953913653352542E+08, 5.550819284222782E+06,
2461547.500000000, A.D. 2027-May-22 00:00:00.0000, 2.102713212333622E+08, 2.050603765255573E+08, 5.520662329217151E+06,
2461554.500000000, A.D. 2027-May-29 00:00:00.0000, 2.002812579995410E+08, 2.143367523959928E+08, 5.479934883841962E+06,
2461561.500000000, A.D. 2027-Jun-05 00:00:00.0000, 1.899063480106263E+08, 2.232012226682339E+08, 5.428676365936279E+06,
2461568.500000000, A.D. 2027-Jun-12 00:00:00.0000, 1.791654398041866E+08, 2.316354800551895E+08, 5.366954330992907E+06,
2461575.500000000, A.D. 2027-Jun-19 00:00:00.0000, 1.680784543295522E+08, 2.396222659798424E+08, 5.294864492671594E+06,
2461582.500000000, A.D. 2027-Jun-26 00:00:00.0000, 1.566663108973908E+08, 2.471454502971617E+08, 5.212530562812135E+06,
2461589.500000000, A.D. 2027-Jul-03 00:00:00.0000, 1.449508457069242E+08, 2.541901041022518E+08, 5.120103896827593E+06,
2461596.500000000, A.D. 2027-Jul-10 00:00:00.0000, 1.329547237415425E+08, 2.607425648074757E+08, 5.017762943908632E+06,
2461603.500000000, A.D. 2027-Jul-17 00:00:00.0000, 1.207013449331312E+08, 2.667904927506324E+08, 4.905712503061160E+06,
2461610.500000000, A.D. 2027-Jul-24 00:00:00.0000, 1.082147457203765E+08, 2.723229187052161E+08, 4.784182776408195E+06,
2461617.500000000, A.D. 2027-Jul-31 00:00:00.0000, 9.551949746181889E+07, 2.773302820917343E+08, 4.653428213132575E+06,
2461624.500000000, A.D. 2027-Aug-07 00:00:00.0000, 8.264060260283807E+07, 2.818044607370921E+08, 4.513726268260717E+06,
2461631.500000000, A.D. 2027-Aug-14 00:00:00.0000, 6.960338741340686E+07, 2.857387917477041E+08, 4.365376278865695E+06,
2461638.500000000, A.D. 2027-Aug-21 00:00:00.0000, 5.643339300936276E+07, 2.891280800948041E+08, 4.208698142901152E+06,
2461645.500000000, A.D. 2027-Aug-28 00:00:00.0000, 4.315626917047276E+07, 2.919685962562014E+08, 4.044030602678418E+06,
2461652.500000000, A.D. 2027-Sep-04 00:00:00.0000, 2.979767083070271E+07, 2.942580656839802E+08, 3.871729462795123E+06,
2461659.500000000, A.D. 2027-Sep-11 00:00:00.0000, 1.638315683142242E+07, 2.959956498193921E+08, 3.692165835257232E+06,
2461666.500000000, A.D. 2027-Sep-18 00:00:00.0000, 2.938091978070231E+06, 2.971819185086842E+08, 3.505724366051495E+06,
2461673.500000000, A.D. 2027-Sep-25 00:00:00.0000, -1.051244655173894E+07, 2.978188143486884E+08, 3.312801435043931E+06,
2461680.500000000, A.D. 2027-Oct-02 00:00:00.0000, -2.394375765504561E+07, 2.979096096790429E+08, 3.113803343111172E+06,
2461687.500000000, A.D. 2027-Oct-09 00:00:00.0000, -3.733159897333009E+07, 2.974588569705384E+08, 2.909144501724109E+06,
2461694.500000000, A.D. 2027-Oct-16 00:00:00.0000, -5.065226322637571E+07, 2.964723333551699E+08, 2.699245631245330E+06,
2461701.500000000, A.D. 2027-Oct-23 00:00:00.0000, -6.388264757034103E+07, 2.949569801211330E+08, 2.484531958896548E+06,
2461708.500000000, A.D. 2027-Oct-30 00:00:00.0000, -7.700031534092999E+07, 2.929208386246907E+08, 2.265431445685461E+06,
2461715.500000000, A.D. 2027-Nov-06 00:00:00.0000, -8.998355119137752E+07, 2.903729845901995E+08, 2.042373252781615E+06,
2461722.500000000, A.D. 2027-Nov-13 00:00:00.0000, -1.028114115513666E+08, 2.873234595438230E+08, 1.815786469073340E+06,
2461729.500000000, A.D. 2027-Nov-20 00:00:00.0000, -1.154637675435013E+08, 2.837831979644677E+08, 1.586098664833635E+06,
2461736.500000000, A.D. 2027-Nov-27 00:00:00.0000, -1.279213388829466E+08, 2.797639538593795E+08, 1.353734373104215E+06,
2461743.500000000, A.D. 2027-Dec-04 00:00:00.0000, -1.401657209919372E+08, 2.752782283850518E+08, 1.119113762838900E+06,
2461750.500000000, A.D. 2027-Dec-11 00:00:00.0000, -1.521794061467839E+08, 2.703391981839846E+08, 8.826514786431044E+05,
2461757.500000000, A.D. 2027-Dec-18 00:00:00.0000, -1.639457987087983E+08, 2.649606446673449E+08, 6.447555963710696E+05,
2461764.500000000, A.D. 2027-Dec-25 00:00:00.0000, -1.754492246586032E+08, 2.591568847481860E+08, 4.058266810816675E+05,
2461771.500000000, A.D. 2028-Jan-01 00:00:00.0000, -1.866749357965890E+08, 2.529427034816732E+08, 1.662569439928830E+05,
$$EOE